0 FENGYUN 1C DEB
1 29969U 99025KT  13280.96328697  .00001741  00000-0  98207-3 0   807
2 29969 099.0374 281.1297 0055605 154.2627 259.7029 14.10873337346012
0 FENGYUN 1C DEB
1 29969U 99025KT  13283.81379924  .00001721  00000-0  97024-3 0   818
2 29969 099.0369 283.9968 0055807 146.3288 337.8521 14.10891703346416
0 FENGYUN 1C DEB
1 29969U 99025KT  13285.92847971  .00001865  00000-0  10492-2 0   827
2 29969 099.0371 286.1233 0055806 140.3543 278.8078 14.10897956346716
0 FENGYUN 1C DEB
1 29969U 99025KT  13287.98407443  .00002892  00000-0  16131-2 0   839
2 29969 099.0365 288.1915 0055837 134.6646 279.5810 14.10904930347008
0 FENGYUN 1C DEB
1 29969U 99025KT  13290.48560534  .00002821  00000-0  15738-2 0   844
2 29969 099.0366 290.7077 0055879 127.8052 025.3821 14.10915620347353
0 FENGYUN 1C DEB
1 29969U 99025KT  13292.60606528  .00002699  00000-0  15068-2 0   854
2 29969 099.0371 292.8396 0055905 121.9803 355.7354 14.10925721347652
0 FENGYUN 1C DEB
1 29969U 99025KT  13294.93486860  .00002696  00000-0  15046-2 0   861
2 29969 099.0378 295.1818 0055962 115.4920 304.5024 14.10937625347983
